[
  {
    "COMMENT": "GENERATED VIA SPACETRACK.ORG API",
    "ORIGINATOR": "18 SPCS",
    "NORAD_CAT_ID": "43437",
    "OBJECT_NAME": "SENTINEL 3B",
    "OBJECT_TYPE": "PAYLOAD",
    "CLASSIFICATION_TYPE": "U",
    "INTLDES": "18039A",
    "EPOCH": "2023-04-11 22:14:40",
    "EPOCH_MICROSECONDS": "615872",
    "MEAN_MOTION": "14.26733022",
    "ECCENTRICITY": "0.0001441",
    "INCLINATION": "98.6326",
    "RA_OF_ASC_NODE": "169.9515",
    "ARG_OF_PERICENTER": "93.9611",
    "MEAN_ANOMALY": "266.1734",
    "EPHEMERIS_TYPE": "0",
    "ELEMENT_SET_NO": "999",
    "REV_AT_EPOCH": "25839",
    "BSTAR": "0.000098384",
    "MEAN_MOTION_DOT": "0.00000194",
    "MEAN_MOTION_DDOT": "0",
    "FILE": "3885919",
    "TLE_LINE0": "0 SENTINEL 3B",
    "TLE_LINE1": "1 43437U 18039A   23101.92685898  .00000194  00000-0  98384-4 0  9994",
    "TLE_LINE2": "2 43437  98.6326 169.9515 0001441  93.9611 266.1734 14.26733022258398",
    "OBJECT_ID": "2018-039A",
    "OBJECT_NUMBER": "43437",
    "SEMIMAJOR_AXIS": "7180.809",
    "PERIOD": "100.930",
    "APOGEE": "803.709",
    "PERIGEE": "801.639",
    "DECAYED": "0"
  },
  {
    "COMMENT": "GENERATED VIA SPACETRACK.ORG API",
    "ORIGINATOR": "18 SPCS",
    "NORAD_CAT_ID": "43437",
    "OBJECT_NAME": "SENTINEL 3B",
    "OBJECT_TYPE": "PAYLOAD",
    "CLASSIFICATION_TYPE": "U",
    "INTLDES": "18039A",
    "EPOCH": "2023-04-12 03:17:38",
    "EPOCH_MICROSECONDS": "323104",
    "MEAN_MOTION": "14.26733157",
    "ECCENTRICITY": "0.0001437",
    "INCLINATION": "98.6326",
    "RA_OF_ASC_NODE": "170.1591",
    "ARG_OF_PERICENTER": "93.8265",
    "MEAN_ANOMALY": "266.3079",
    "EPHEMERIS_TYPE": "0",
    "ELEMENT_SET_NO": "999",
    "REV_AT_EPOCH": "25842",
    "BSTAR": "0.000099915",
    "MEAN_MOTION_DOT": "0.00000198",
    "MEAN_MOTION_DDOT": "0",
    "FILE": "3886349",
    "TLE_LINE0": "0 SENTINEL 3B",
    "TLE_LINE1": "1 43437U 18039A   23102.13724911  .00000198  00000-0  99915-4 0  9993",
    "TLE_LINE2": "2 43437  98.6326 170.1591 0001437  93.8265 266.3079 14.26733157258422",
    "OBJECT_ID": "2018-039A",
    "OBJECT_NUMBER": "43437",
    "SEMIMAJOR_AXIS": "7180.808",
    "PERIOD": "100.930",
    "APOGEE": "803.705",
    "PERIGEE": "801.642",
    "DECAYED": "0"
  },
  {
    "COMMENT": "GENERATED VIA SPACETRACK.ORG API",
    "ORIGINATOR": "18 SPCS",
    "NORAD_CAT_ID": "43437",
    "OBJECT_NAME": "SENTINEL 3B",
    "OBJECT_TYPE": "PAYLOAD",
    "CLASSIFICATION_TYPE": "U",
    "INTLDES": "18039A",
    "EPOCH": "2023-04-12 15:04:32",
    "EPOCH_MICROSECONDS": "969568",
    "MEAN_MOTION": "14.26733389",
    "ECCENTRICITY": "0.000144",
    "INCLINATION": "98.6325",
    "RA_OF_ASC_NODE": "170.6434",
    "ARG_OF_PERICENTER": "93.5975",
    "MEAN_ANOMALY": "266.537",
    "EPHEMERIS_TYPE": "0",
    "ELEMENT_SET_NO": "999",
    "REV_AT_EPOCH": "25849",
    "BSTAR": "0.000098323",
    "MEAN_MOTION_DOT": "0.00000194",
    "MEAN_MOTION_DDOT": "0",
    "FILE": "3886427",
    "TLE_LINE0": "0 SENTINEL 3B",
    "TLE_LINE1": "1 43437U 18039A   23102.62815937  .00000194  00000-0  98323-4 0  9994",
    "TLE_LINE2": "2 43437  98.6325 170.6434 0001440  93.5975 266.5370 14.26733389258491",
    "OBJECT_ID": "2018-039A",
    "OBJECT_NUMBER": "43437",
    "SEMIMAJOR_AXIS": "7180.808",
    "PERIOD": "100.930",
    "APOGEE": "803.707",
    "PERIGEE": "801.639",
    "DECAYED": "0"
  },
  {
    "COMMENT": "GENERATED VIA SPACETRACK.ORG API",
    "ORIGINATOR": "18 SPCS",
    "NORAD_CAT_ID": "43437",
    "OBJECT_NAME": "SENTINEL 3B",
    "OBJECT_TYPE": "PAYLOAD",
    "CLASSIFICATION_TYPE": "U",
    "INTLDES": "18039A",
    "EPOCH": "2023-04-13 04:32:26",
    "EPOCH_MICROSECONDS": "845440",
    "MEAN_MOTION": "14.26733685",
    "ECCENTRICITY": "0.0001437",
    "INCLINATION": "98.6324",
    "RA_OF_ASC_NODE": "171.1969",
    "ARG_OF_PERICENTER": "93.243",
    "MEAN_ANOMALY": "266.8915",
    "EPHEMERIS_TYPE": "0",
    "ELEMENT_SET_NO": "999",
    "REV_AT_EPOCH": "25857",
    "BSTAR": "0.00010053",
    "MEAN_MOTION_DOT": "0.000002",
    "MEAN_MOTION_DDOT": "0",
    "FILE": "3886564",
    "TLE_LINE0": "0 SENTINEL 3B",
    "TLE_LINE1": "1 43437U 18039A   23103.18919960  .00000200  00000-0  10053-3 0  9998",
    "TLE_LINE2": "2 43437  98.6324 171.1969 0001437  93.2430 266.8915 14.26733685258574",
    "OBJECT_ID": "2018-039A",
    "OBJECT_NUMBER": "43437",
    "SEMIMAJOR_AXIS": "7180.807",
    "PERIOD": "100.930",
    "APOGEE": "803.704",
    "PERIGEE": "801.640",
    "DECAYED": "0"
  },
  {
    "COMMENT": "GENERATED VIA SPACETRACK.ORG API",
    "ORIGINATOR": "18 SPCS",
    "NORAD_CAT_ID": "43437",
    "OBJECT_NAME": "SENTINEL 3B",
    "OBJECT_TYPE": "PAYLOAD",
    "CLASSIFICATION_TYPE": "U",
    "INTLDES": "18039A",
    "EPOCH": "2023-04-14 04:06:16",
    "EPOCH_MICROSECONDS": "92576",
    "MEAN_MOTION": "14.26734303",
    "ECCENTRICITY": "0.0001442",
    "INCLINATION": "98.6322",
    "RA_OF_ASC_NODE": "172.1655",
    "ARG_OF_PERICENTER": "92.7656",
    "MEAN_ANOMALY": "267.3689",
    "EPHEMERIS_TYPE": "0",
    "ELEMENT_SET_NO": "999",
    "REV_AT_EPOCH": "25871",
    "BSTAR": "0.0001071",
    "MEAN_MOTION_DOT": "0.00000215",
    "MEAN_MOTION_DDOT": "0",
    "FILE": "3887333",
    "TLE_LINE0": "0 SENTINEL 3B",
    "TLE_LINE1": "1 43437U 18039A   23104.17101959  .00000215  00000-0  10710-3 0  9995",
    "TLE_LINE2": "2 43437  98.6322 172.1655 0001442  92.7656 267.3689 14.26734303258713",
    "OBJECT_ID": "2018-039A",
    "OBJECT_NUMBER": "43437",
    "SEMIMAJOR_AXIS": "7180.805",
    "PERIOD": "100.930",
    "APOGEE": "803.705",
    "PERIGEE": "801.634",
    "DECAYED": "0"
  },
  {
    "COMMENT": "GENERATED VIA SPACETRACK.ORG API",
    "ORIGINATOR": "18 SPCS",
    "NORAD_CAT_ID": "43437",
    "OBJECT_NAME": "SENTINEL 3B",
    "OBJECT_TYPE": "PAYLOAD",
    "CLASSIFICATION_TYPE": "U",
    "INTLDES": "18039A",
    "EPOCH": "2023-04-15 03:40:05",
    "EPOCH_MICROSECONDS": "312928",
    "MEAN_MOTION": "14.26734975",
    "ECCENTRICITY": "0.0001434",
    "INCLINATION": "98.632",
    "RA_OF_ASC_NODE": "173.1341",
    "ARG_OF_PERICENTER": "92.1547",
    "MEAN_ANOMALY": "267.9798",
    "EPHEMERIS_TYPE": "0",
    "ELEMENT_SET_NO": "999",
    "REV_AT_EPOCH": "25885",
    "BSTAR": "0.00011861",
    "MEAN_MOTION_DOT": "0.00000243",
    "MEAN_MOTION_DDOT": "0",
    "FILE": "3887974",
    "TLE_LINE0": "0 SENTINEL 3B",
    "TLE_LINE1": "1 43437U 18039A   23105.15283927  .00000243  00000-0  11861-3 0  9999",
    "TLE_LINE2": "2 43437  98.6320 173.1341 0001434  92.1547 267.9798 14.26734975258855",
    "OBJECT_ID": "2018-039A",
    "OBJECT_NUMBER": "43437",
    "SEMIMAJOR_AXIS": "7180.802",
    "PERIOD": "100.930",
    "APOGEE": "803.697",
    "PERIGEE": "801.638",
    "DECAYED": "0"
  },
  {
    "COMMENT": "GENERATED VIA SPACETRACK.ORG API",
    "ORIGINATOR": "18 SPCS",
    "NORAD_CAT_ID": "43437",
    "OBJECT_NAME": "SENTINEL 3B",
    "OBJECT_TYPE": "PAYLOAD",
    "CLASSIFICATION_TYPE": "U",
    "INTLDES": "18039A",
    "EPOCH": "2023-04-15 18:48:58",
    "EPOCH_MICROSECONDS": "365504",
    "MEAN_MOTION": "14.26735341",
    "ECCENTRICITY": "0.0001437",
    "INCLINATION": "98.6319",
    "RA_OF_ASC_NODE": "173.7567",
    "ARG_OF_PERICENTER": "91.5891",
    "MEAN_ANOMALY": "268.5454",
    "EPHEMERIS_TYPE": "0",
    "ELEMENT_SET_NO": "999",
    "REV_AT_EPOCH": "25894",
    "BSTAR": "0.00011981",
    "MEAN_MOTION_DOT": "0.00000246",
    "MEAN_MOTION_DDOT": "0",
    "FILE": "3888171",
    "TLE_LINE0": "0 SENTINEL 3B",
    "TLE_LINE1": "1 43437U 18039A   23105.78400886  .00000246  00000-0  11981-3 0  9999",
    "TLE_LINE2": "2 43437  98.6319 173.7567 0001437  91.5891 268.5454 14.26735341258941",
    "OBJECT_ID": "2018-039A",
    "OBJECT_NUMBER": "43437",
    "SEMIMAJOR_AXIS": "7180.801",
    "PERIOD": "100.930",
    "APOGEE": "803.698",
    "PERIGEE": "801.634",
    "DECAYED": "0"
  },
  {
    "COMMENT": "GENERATED VIA SPACETRACK.ORG API",
    "ORIGINATOR": "18 SPCS",
    "NORAD_CAT_ID": "43437",
    "OBJECT_NAME": "SENTINEL 3B",
    "OBJECT_TYPE": "PAYLOAD",
    "CLASSIFICATION_TYPE": "U",
    "INTLDES": "18039A",
    "EPOCH": "2023-04-16 04:54:53",
    "EPOCH_MICROSECONDS": "721216",
    "MEAN_MOTION": "14.26735686",
    "ECCENTRICITY": "0.0001425",
    "INCLINATION": "98.6318",
    "RA_OF_ASC_NODE": "174.1718",
    "ARG_OF_PERICENTER": "91.3261",
    "MEAN_ANOMALY": "268.8083",
    "EPHEMERIS_TYPE": "0",
    "ELEMENT_SET_NO": "999",
    "REV_AT_EPOCH": "25900",
    "BSTAR": "0.00012824",
    "MEAN_MOTION_DOT": "0.00000267",
    "MEAN_MOTION_DDOT": "0",
    "FILE": "3888626",
    "TLE_LINE0": "0 SENTINEL 3B",
    "TLE_LINE1": "1 43437U 18039A   23106.20478844  .00000267  00000-0  12824-3 0  9996",
    "TLE_LINE2": "2 43437  98.6318 174.1718 0001425  91.3261 268.8083 14.26735686259000",
    "OBJECT_ID": "2018-039A",
    "OBJECT_NUMBER": "43437",
    "SEMIMAJOR_AXIS": "7180.800",
    "PERIOD": "100.930",
    "APOGEE": "803.688",
    "PERIGEE": "801.642",
    "DECAYED": "0"
  }
]